{
  "type": "FeatureCollection",
  "features": [
    {
      "type": "Feature",
      "properties": {
        "norad_id": 33913,
        "name": "COSMOS 2251 DEB",
        "group": "cosmos-2251-debris",
        "lat": -73.78039608988406,
        "lon": 78.69522915321288,
        "alt_km": 704.177604190404,
        "timestamp": "2025-12-26T03:50:12.487080+00:00",
        "meta_object_name": "COSMOS 2251 DEB",
        "meta_object_id": "1993-036DS",
        "meta_epoch": "2025-12-25T20:30:08.870112",
        "meta_mean_motion": 14.48539545,
        "meta_eccentricity": 0.0048173,
        "meta_inclination": 74.0332,
        "meta_ra_of_asc_node": 159.0733,
        "meta_arg_of_pericenter": 259.2078,
        "meta_mean_anomaly": 220.5321,
        "meta_ephemeris_type": 0,
        "meta_classification_type": "U",
        "meta_norad_cat_id": 33913,
        "meta_element_set_no": 999,
        "meta_rev_at_epoch": 88647,
        "meta_bstar": 0.00064836,
        "meta_mean_motion_dot": 2.443e-05,
        "meta_mean_motion_ddot": 0,
        "tle_line1": "1 33913U 93036DS  25359.85426933  .00002443  00000+0  64836-3 0  9996",
        "tle_line2": "2 33913  74.0332 159.0733 0048173 259.2078 220.5321 14.48539545886470"
      },
      "geometry": {
        "type": "Point",
        "coordinates": [
          78.69522915321288,
          -73.78039608988406
        ]
      }
    },
    {
      "type": "Feature",
      "properties": {
        "norad_id": 33914,
        "name": "COSMOS 2251 DEB",
        "group": "cosmos-2251-debris",
        "lat": 30.50741423164459,
        "lon": 163.30429997430764,
        "alt_km": 859.6510959339676,
        "timestamp": "2025-12-26T03:50:12.487091+00:00",
        "meta_object_name": "COSMOS 2251 DEB",
        "meta_object_id": "1993-036DT",
        "meta_epoch": "2025-12-25T08:23:29.526720",
        "meta_mean_motion": 13.71992318,
        "meta_eccentricity": 0.0300778,
        "meta_inclination": 74.0911,
        "meta_ra_of_asc_node": 354.3132,
        "meta_arg_of_pericenter": 94.2967,
        "meta_mean_anomaly": 10.6616,
        "meta_ephemeris_type": 0,
        "meta_classification_type": "U",
        "meta_norad_cat_id": 33914,
        "meta_element_set_no": 999,
        "meta_rev_at_epoch": 84254,
        "meta_bstar": 0.0002765,
        "meta_mean_motion_dot": 3.27e-06,
        "meta_mean_motion_ddot": 0,
        "tle_line1": "1 33914U 93036DT  25359.34964730  .00000327  00000+0  27650-3 0  9995",
        "tle_line2": "2 33914  74.0911 354.3132 0300778  94.2967  10.6616 13.71992318842544"
      },
      "geometry": {
        "type": "Point",
        "coordinates": [
          163.30429997430764,
          30.50741423164459
        ]
      }
    },
    {
      "type": "Feature",
      "properties": {
        "norad_id": 33915,
        "name": "COSMOS 2251 DEB",
        "group": "cosmos-2251-debris",
        "lat": 66.47837808335035,
        "lon": 50.610052900332605,
        "alt_km": 700.8072209795573,
        "timestamp": "2025-12-26T03:50:12.487101+00:00",
        "meta_object_name": "COSMOS 2251 DEB",
        "meta_object_id": "1993-036DU",
        "meta_epoch": "2025-12-25T11:20:12.081984",
        "meta_mean_motion": 14.35109894,
        "meta_eccentricity": 0.0103991,
        "meta_inclination": 74.0429,
        "meta_ra_of_asc_node": 10.7713,
        "meta_arg_of_pericenter": 99.8794,
        "meta_mean_anomaly": 22.672,
        "meta_ephemeris_type": 0,
        "meta_classification_type": "U",
        "meta_norad_cat_id": 33915,
        "meta_element_set_no": 999,
        "meta_rev_at_epoch": 87940,
        "meta_bstar": 0.00034552,
        "meta_mean_motion_dot": 1.023e-05,
        "meta_mean_motion_ddot": 0,
        "tle_line1": "1 33915U 93036DU  25359.47236206  .00001023  00000+0  34552-3 0  9993",
        "tle_line2": "2 33915  74.0429  10.7713 0103991  99.8794  22.6720 14.35109894879408"
      },
      "geometry": {
        "type": "Point",
        "coordinates": [
          50.610052900332605,
          66.47837808335035
        ]
      }
    },
    {
      "type": "Feature",
      "properties": {
        "norad_id": 33916,
        "name": "COSMOS 2251 DEB",
        "group": "cosmos-2251-debris",
        "lat": -66.0927470326669,
        "lon": -121.29320101978043,
        "alt_km": 900.5211661172443,
        "timestamp": "2025-12-26T03:50:12.487112+00:00",
        "meta_object_name": "COSMOS 2251 DEB",
        "meta_object_id": "1993-036DV",
        "meta_epoch": "2025-12-25T11:27:31.349088",
        "meta_mean_motion": 13.68626311,
        "meta_eccentricity": 0.0324758,
        "meta_inclination": 74.0518,
        "meta_ra_of_asc_node": 19.6588,
        "meta_arg_of_pericenter": 189.0697,
        "meta_mean_anomaly": 298.4885,
        "meta_ephemeris_type": 0,
        "meta_classification_type": "U",
        "meta_norad_cat_id": 33916,
        "meta_element_set_no": 999,
        "meta_rev_at_epoch": 84065,
        "meta_bstar": 0.00030282,
        "meta_mean_motion_dot": 3.54e-06,
        "meta_mean_motion_ddot": 0,
        "tle_line1": "1 33916U 93036DV  25359.47744617  .00000354  00000+0  30282-3 0  9996",
        "tle_line2": "2 33916  74.0518  19.6588 0324758 189.0697 298.4885 13.68626311840659"
      },
      "geometry": {
        "type": "Point",
        "coordinates": [
          -121.29320101978043,
          -66.0927470326669
        ]
      }
    },
    {
      "type": "Feature",
      "properties": {
        "norad_id": 33917,
        "name": "COSMOS 2251 DEB",
        "group": "cosmos-2251-debris",
        "lat": 1.7074091311403925,
        "lon": 100.87578492210712,
        "alt_km": 1237.6970826477636,
        "timestamp": "2025-12-26T03:50:12.487122+00:00",
        "meta_object_name": "COSMOS 2251 DEB",
        "meta_object_id": "1993-036DW",
        "meta_epoch": "2025-12-25T17:18:27.771264",
        "meta_mean_motion": 13.6938971,
        "meta_eccentricity": 0.0331139,
        "meta_inclination": 74.1073,
        "meta_ra_of_asc_node": 101.1083,
        "meta_arg_of_pericenter": 199.2418,
        "meta_mean_anomaly": 159.5953,
        "meta_ephemeris_type": 0,
        "meta_classification_type": "U",
        "meta_norad_cat_id": 33917,
        "meta_element_set_no": 999,
        "meta_rev_at_epoch": 83911,
        "meta_bstar": 0.0010734,
        "meta_mean_motion_dot": 1.349e-05,
        "meta_mean_motion_ddot": 0,
        "tle_line1": "1 33917U 93036DW  25359.72115476  .00001349  00000+0  10734-2 0  9994",
        "tle_line2": "2 33917  74.1073 101.1083 0331139 199.2418 159.5953 13.69389710839111"
      },
      "geometry": {
        "type": "Point",
        "coordinates": [
          100.87578492210712,
          1.7074091311403925
        ]
      }
    },
    {
      "type": "Feature",
      "properties": {
        "norad_id": 33920,
        "name": "COSMOS 2251 DEB",
        "group": "cosmos-2251-debris",
        "lat": 55.60371463316461,
        "lon": -62.403737901554706,
        "alt_km": 713.3877455531392,
        "timestamp": "2025-12-26T03:50:12.487133+00:00",
        "meta_object_name": "COSMOS 2251 DEB",
        "meta_object_id": "1993-036DZ",
        "meta_epoch": "2025-12-25T19:20:05.557632",
        "meta_mean_motion": 14.58472232,
        "meta_eccentricity": 0.0037688,
        "meta_inclination": 74.061,
        "meta_ra_of_asc_node": 273.5967,
        "meta_arg_of_pericenter": 278.0618,
        "meta_mean_anomaly": 81.6272,
        "meta_ephemeris_type": 0,
        "meta_classification_type": "U",
        "meta_norad_cat_id": 33920,
        "meta_element_set_no": 999,
        "meta_rev_at_epoch": 88305,
        "meta_bstar": 0.0016701,
        "meta_mean_motion_dot": 7.807e-05,
        "meta_mean_motion_ddot": 0,
        "tle_line1": "1 33920U 93036DZ  25359.80561988  .00007807  00000+0  16701-2 0  9995",
        "tle_line2": "2 33920  74.0610 273.5967 0037688 278.0618  81.6272 14.58472232883058"
      },
      "geometry": {
        "type": "Point",
        "coordinates": [
          -62.403737901554706,
          55.60371463316461
        ]
      }
    },
    {
      "type": "Feature",
      "properties": {
        "norad_id": 33922,
        "name": "COSMOS 2251 DEB",
        "group": "cosmos-2251-debris",
        "lat": 44.05522226524541,
        "lon": -73.46677214519693,
        "alt_km": 725.3052218505909,
        "timestamp": "2025-12-26T03:50:12.487143+00:00",
        "meta_object_name": "COSMOS 2251 DEB",
        "meta_object_id": "1993-036EB",
        "meta_epoch": "2025-12-25T19:31:12.970848",
        "meta_mean_motion": 14.49555987,
        "meta_eccentricity": 0.0023093,
        "meta_inclination": 74.0471,
        "meta_ra_of_asc_node": 123.2498,
        "meta_arg_of_pericenter": 232.4585,
        "meta_mean_anomaly": 253.8509,
        "meta_ephemeris_type": 0,
        "meta_classification_type": "U",
        "meta_norad_cat_id": 33922,
        "meta_element_set_no": 999,
        "meta_rev_at_epoch": 88767,
        "meta_bstar": 0.00055201,
        "meta_mean_motion_dot": 2.098e-05,
        "meta_mean_motion_ddot": 0,
        "tle_line1": "1 33922U 93036EB  25359.81334457  .00002098  00000+0  55201-3 0  9993",
        "tle_line2": "2 33922  74.0471 123.2498 0023093 232.4585 253.8509 14.49555987887674"
      },
      "geometry": {
        "type": "Point",
        "coordinates": [
          -73.46677214519693,
          44.05522226524541
        ]
      }
    }
  ]
}